NORAD_CAT_ID,OBJECT_NAME,OBJECT_TYPE,EPOCH,MEAN_MOTION,ECCENTRICITY,INCLINATION,RA_OF_ASC_NODE,ARG_OF_PERICENTER,MEAN_ANOMALY,BSTAR,MEAN_MOTION_DOT,MEAN_MOTION_DDOT,TLE_LINE0,TLE_LINE1,TLE_LINE2,SEMIMAJOR_AXIS,PERIOD,APOGEE,PERIGEE,DECAYED
56450.0,STARLINK-5970,PAYLOAD,2023-12-28 10:14:12,14.98324051,0.000264,70.0009,7.2974,257.86,102.2263,1.3114e-05,6.4e-07,0.0,0 STARLINK-5970,1 56450U 23064C   23362.42653789  .00000064  00000-0  13114-4 0  9999,2 56450  70.0009   7.2974 0002640 257.8600 102.2263 14.98324051 35075,6950.211,96.107,573.911,570.241,0.0
56450.0,STARLINK-5970,PAYLOAD,2023-12-29 03:51:41,14.98328869,0.0002752,70.0005,5.4455,261.0734,99.0113,6.0859e-06,-2e-07,0.0,0 STARLINK-5970,1 56450U 23064C   23363.16089535 -.00000020  00000-0  60859-5 0  9995,2 56450  70.0005   5.4455 0002752 261.0734  99.0113 14.98328869 35544,6950.196,96.107,573.974,570.149,0.0
56450.0,STARLINK-5970,PAYLOAD,2023-12-29 10:16:13,14.98328571,0.0002693,70.0007,4.7723,261.3144,98.771,2.248e-06,-6.6e-07,0.0,0 STARLINK-5970,1 56450U 23064C   23363.42793590 -.00000066  00000-0  22480-5 0  9995,2 56450  70.0007   4.7723 0002693 261.3144  98.7710 14.98328571 35222,6950.197,96.107,573.934,570.191,0.0
56450.0,STARLINK-5970,PAYLOAD,2023-12-30 03:53:42,14.98331838,0.0002846,70.0005,2.9204,268.0478,92.0355,2.829e-05,2.45e-06,0.0,0 STARLINK-5970,1 56450U 23064C   23364.16229278  .00000245  00000-0  28290-4 0  9996,2 56450  70.0005   2.9204 0002846 268.0478  92.0355 14.98331838 35691,6950.187,96.107,574.03,570.074,0.0
56450.0,STARLINK-5970,PAYLOAD,2023-12-30 10:18:14,14.98330608,0.0002691,70.0007,2.2467,268.3056,91.7794,7.8419e-05,8.43e-06,0.0,0 STARLINK-5970,1 56450U 23064C   23364.42933248  .00000843  00000-0  78419-4 0  9996,2 56450  70.0007   2.2467 0002691 268.3056  91.7794 14.98330608 35372,6950.191,96.107,573.926,570.186,0.0
56450.0,STARLINK-5970,PAYLOAD,2023-12-30 23:07:18,14.98330113,0.0002568,70.0011,0.9007,262.9252,97.1615,1.5042e-05,8.7e-07,0.0,0 STARLINK-5970,1 56450U 23064C   23364.96341344  .00000087  00000-0  15042-4 0  9998,2 56450  70.0011   0.9007 0002568 262.9252  97.1615 14.98330113 35455,6950.193,96.107,573.842,570.273,0.0
56450.0,STARLINK-5970,PAYLOAD,2023-12-31 03:55:43,14.98325133,0.0002812,70.0009,0.3943,272.4376,87.6461,1.0582e-05,3.3e-07,0.0,0 STARLINK-5970,1 56450U 23064C   23365.16369701  .00000033  00000-0  10582-4 0  9993,2 56450  70.0009   0.3943 0002812 272.4376  87.6461 14.98325133 35842,6950.208,96.107,574.027,570.119,0.0
56450.0,STARLINK-5970,PAYLOAD,2023-12-31 08:44:07,14.9832201,0.0002924,70.0007,359.8895,273.8449,86.2375,-2.4364e-05,-3.84e-06,0.0,0 STARLINK-5970,1 56450U 23064C   23365.36398074 -.00000384  00000-0 -24364-4 0  9994,2 56450  70.0007 359.8895 0002924 273.8449  86.2375 14.98322010 35512,6950.218,96.108,574.115,570.05,0.0
56450.0,STARLINK-5970,PAYLOAD,2024-01-01 03:57:44,14.98332256,0.0003049,70.0,357.8692,273.0064,87.0746,-1.4199e-05,-2.62e-06,0.0,0 STARLINK-5970,1 56450U 23064C   24001.16509359 -.00000262  00000-0 -14199-4 0  9990,2 56450  70.0000 357.8692 0003049 273.0064  87.0746 14.98332256 35998,6950.186,96.107,574.17,569.932,0.0
56450.0,STARLINK-5970,PAYLOAD,2024-01-01 10:22:15,14.98352099,0.0002693,70.0001,357.1957,270.2939,89.7912,-0.00025698,-3.16e-05,0.0,0 STARLINK-5970,1 56450U 23064C   24001.43212583 -.00003160  00000-0 -25698-3 0  9995,2 56450  70.0001 357.1957 0002693 270.2939  89.7912 14.98352099 36037,6950.125,96.106,573.861,570.118,0.0
56450.0,STARLINK-5970,PAYLOAD,2024-01-01 23:11:20,14.98328605,0.0002934,70.0003,355.8492,271.8447,88.2376,6.5347e-05,6.87e-06,0.0,0 STARLINK-5970,1 56450U 23064C   24001.96621176  .00000687  00000-0  65347-4 0  9990,2 56450  70.0003 355.8492 0002934 271.8447  88.2376 14.98328605 35759,6950.197,96.107,574.101,570.023,0.0
56450.0,STARLINK-5970,PAYLOAD,2024-01-02 03:59:44,14.98328906,0.000295,70.0003,355.3443,270.5185,89.5636,6.3476e-05,6.64e-06,0.0,0 STARLINK-5970,1 56450U 23064C   24002.16649149  .00000664  00000-0  63476-4 0  9999,2 56450  70.0003 355.3443 0002950 270.5185  89.5636 14.98328906 36144,6950.196,96.107,574.112,570.011,0.0
56450.0,STARLINK-5970,PAYLOAD,2024-01-02 08:48:08,14.98330861,0.0002961,70.0002,354.8391,271.8223,88.2597,7.8537e-05,8.44e-06,0.0,0 STARLINK-5970,1 56450U 23064C   24002.36676979  .00000844  00000-0  78537-4 0  9996,2 56450  70.0002 354.8391 0002961 271.8223  88.2597 14.98330861 35816,6950.19,96.107,574.113,569.997,0.0
56450.0,STARLINK-5970,PAYLOAD,2024-01-03 04:01:46,14.98325664,0.0002874,70.0002,352.8189,267.3487,92.7343,-5.7271e-05,-7.76e-06,0.0,0 STARLINK-5970,1 56450U 23064C   24003.16789650 -.00000776  00000-0 -57271-4 0  9994,2 56450  70.0002 352.8189 0002874 267.3487  92.7343 14.98325664 36291,6950.206,96.107,574.069,570.074,0.0
56450.0,STARLINK-5970,PAYLOAD,2024-01-03 08:50:10,14.98327979,0.0002965,70.0003,352.3145,270.6101,89.4719,-6.7765e-05,-9.01e-06,0.0,0 STARLINK-5970,1 56450U 23064C   24003.36817573 -.00000901  00000-0 -67765-4 0  9991,2 56450  70.0003 352.3145 0002965 270.6101  89.4719 14.98327979 35964,6950.199,96.107,574.125,570.003,0.0
56450.0,STARLINK-5970,PAYLOAD,2024-01-04 04:03:49,14.98305852,0.0003207,70.0001,350.295,281.9972,78.0827,-0.00027294,-3.346e-05,0.0,0 STARLINK-5970,1 56450U 23064C   24004.16931980 -.00003346  00000-0 -27294-3 0  9997,2 56450  70.0001 350.2950 0003207 281.9972  78.0827 14.98305852 36448,6950.268,96.109,574.362,569.904,0.0
56450.0,STARLINK-5970,PAYLOAD,2024-01-04 08:52:13,14.98303825,0.0002835,70.0004,349.7898,268.683,91.4004,-0.00028735,-3.517e-05,0.0,0 STARLINK-5970,1 56450U 23064C   24004.36960373 -.00003517  00000-0 -28735-3 0  9998,2 56450  70.0004 349.7898 0002835 268.6830  91.4004 14.98303825 36114,6950.274,96.109,574.109,570.168,0.0
56450.0,STARLINK-5970,PAYLOAD,2024-01-04 21:41:17,14.983155,0.0003216,69.9988,348.4398,278.2025,81.8769,-1.2245e-05,-2.39e-06,0.0,0 STARLINK-5970,1 56450U 23064C   24004.90367473 -.00000239  00000-0 -12245-4 0  9998,2 56450  69.9988 348.4398 0003216 278.2025  81.8769 14.98315500 36192,6950.238,96.108,574.338,569.868,0.0
56450.0,STARLINK-5970,PAYLOAD,2024-01-05 04:05:48,14.98330245,0.0002862,70.0002,347.769,264.2968,95.7865,0.0001093,1.211e-05,0.0,0 STARLINK-5970,1 56450U 23064C   24005.17070294  .00001211  00000-0  10930-3 0  9997,2 56450  70.0002 347.7690 0002862 264.2968  95.7865 14.98330245 36594,6950.192,96.107,574.046,570.068,0.0
56450.0,STARLINK-5970,PAYLOAD,2024-01-05 08:54:13,14.98326809,0.0002357,70.0015,347.2653,254.5228,105.5671,0.00011659,1.298e-05,0.0,0 STARLINK-5970,1 56450U 23064C   24005.37098582  .00001298  00000-0  11659-3 0  9993,2 56450  70.0015 347.2653 0002357 254.5228 105.5671 14.98326809 36262,6950.203,96.107,573.706,570.43,0.0
56450.0,STARLINK-5970,PAYLOAD,2024-01-05 21:43:16,14.9832751,0.0002493,70.0004,345.9175,260.9549,99.1328,0.00040464,4.738e-05,0.0,0 STARLINK-5970,1 56450U 23064C   24005.90505528  .00004738  00000-0  40464-3 0  9993,2 56450  70.0004 345.9175 0002493 260.9549  99.1328 14.98327510 36348,6950.201,96.107,573.798,570.333,0.0
56450.0,STARLINK-5970,PAYLOAD,2024-01-06 04:07:48,14.98333263,0.0002096,70.0007,345.2454,249.6297,110.4637,0.00035415,4.135e-05,0.0,0 STARLINK-5970,1 56450U 23064C   24006.17209365  .00004135  00000-0  35415-3 0  9994,2 56450  70.0007 345.2454 0002096 249.6297 110.4637 14.98333263 36743,6950.183,96.107,573.505,570.591,0.0
56450.0,STARLINK-5970,PAYLOAD,2024-01-06 07:20:04,14.9836002,0.0002185,70.0005,344.9081,259.1957,100.8956,-1.5879e-05,-2.82e-06,0.0,0 STARLINK-5970,1 56450U 23064C   24006.30560529 -.00000282  00000-0 -15879-4 0  9995,2 56450  70.0005 344.9081 0002185 259.1957 100.8956 14.98360020 36761,6950.1,96.105,573.484,570.446,0.0
56450.0,STARLINK-5970,PAYLOAD,2024-01-06 21:45:17,14.9834281,0.0002504,70.0021,343.3946,255.6686,104.4195,3.4068e-05,3.14e-06,0.0,0 STARLINK-5970,1 56450U 23064C   24006.90645291  .00000314  00000-0  34068-4 0  9996,2 56450  70.0021 343.3946 0002504 255.6686 104.4195 14.98342810 36499,6950.153,96.106,573.759,570.278,0.0
56450.0,STARLINK-5970,PAYLOAD,2024-01-07 04:09:50,14.9833582,0.0002654,70.0009,342.7203,263.377,96.7087,-3.1108e-05,-4.64e-06,0.0,0 STARLINK-5970,1 56450U 23064C   24007.17349766 -.00000464  00000-0 -31108-4 0  9994,2 56450  70.0009 342.7203 0002654 263.3770  96.7087 14.98335820 36890,6950.175,96.107,573.884,570.195,0.0
56450.0,STARLINK-5970,PAYLOAD,2024-01-07 08:58:14,14.98339054,0.0002941,70.0005,342.2145,269.8883,90.1939,-2.6611e-05,-4.11e-06,0.0,0 STARLINK-5970,1 56450U 23064C   24007.37377409 -.00000411  00000-0 -26611-4 0  9996,2 56450  70.0005 342.2145 0002941 269.8883  90.1939 14.98339054 36562,6950.165,96.106,574.074,569.986,0.0
56450.0,STARLINK-5970,PAYLOAD,2024-01-07 21:47:18,14.98343911,0.000258,70.0013,340.8672,261.2518,98.8349,-0.00020873,-2.583e-05,0.0,0 STARLINK-5970,1 56450U 23064C   24007.90785284 -.00002583  00000-0 -20873-3 0  9994,2 56450  70.0013 340.8672 0002580 261.2518  98.8349 14.98343911 36646,6950.15,96.106,573.808,570.222,0.0
56450.0,STARLINK-5970,PAYLOAD,2024-01-08 04:11:51,14.98331223,0.0002039,70.0036,340.1985,221.8102,138.2902,-0.00017787,-2.214e-05,0.0,0 STARLINK-5970,1 56450U 23064C   24008.17489816 -.00002214  00000-0 -17787-3 0  9997,2 56450  70.0036 340.1985 0002039 221.8102 138.2902 14.98331223 37043,6950.189,96.107,573.471,570.637,0.0
56450.0,STARLINK-5970,PAYLOAD,2024-01-08 07:24:06,14.98335593,0.0002161,70.002,339.8601,246.9697,113.1235,-0.00016725,-2.088e-05,0.0,0 STARLINK-5970,1 56450U 23064C   24008.30841408 -.00002088  00000-0 -16725-3 0  9991,2 56450  70.0020 339.8601 0002161 246.9697 113.1235 14.98335593 36706,6950.176,96.107,573.543,570.539,0.0
56450.0,STARLINK-5970,PAYLOAD,2024-01-09 04:13:51,14.98335904,0.0002603,70.0007,337.6705,267.7203,92.3658,-0.00010017,-1.288e-05,0.0,0 STARLINK-5970,1 56450U 23064C   24009.17628878 -.00001288  00000-0 -10017-3 0  9990,2 56450  70.0007 337.6705 0002603 267.7203  92.3658 14.98335904 37194,6950.175,96.107,573.849,570.231,0.0
